H1 CPF  1  DLR 2021 01 06 10  5062 technosat            
H2  1704205 6203    42829 2021 01 06 00 00 00 2021 01 13 00 00 00    60 1 1  0 0 0
H9
10 0 59225  64800.000000  0       4062745.110       3644764.723      -4350805.007
10 0 59225  64860.000000  0       3912003.920       3377755.426      -4690482.048
10 0 59225  64920.000000  0       3742467.969       3097985.056      -5010349.760
10 0 59225  64980.000000  0       3554745.984       2806791.530      -5309062.055
10 0 59225  65040.000000  0       3349534.300       2505554.266      -5585362.558
10 0 59225  65100.000000  0       3127614.186       2195687.586      -5838089.672
10 0 59225  65160.000000  0       2889848.783       1878634.036      -6066181.263
10 0 59225  65220.000000  0       2637179.624       1555857.641      -6268678.872
10 0 59225  65280.000000  0       2370622.838       1228837.180      -6444731.479
10 0 59225  65340.000000  0       2091265.036        899059.459      -6593598.820
10 0 59225  65400.000000  0       1800258.926        568012.642      -6714654.272
10 0 59225  65460.000000  0       1498818.649        237179.657      -6807387.406
10 0 59225  65520.000000  0       1188214.692        -91968.400      -6871406.119
10 0 59225  65580.000000  0        869768.514       -417978.780      -6906438.145
10 0 59225  65640.000000  0        544847.006       -739423.387      -6912332.079
10 0 59225  65700.000000  0        214856.746      -1054904.922      -6889058.006
10 0 59225  65760.000000  0       -118761.951      -1363062.841      -6836707.681
10 0 59225  65820.000000  0       -454541.187      -1662579.124      -6755494.333
10 0 59225  65880.000000  0       -790991.871      -1952183.893      -6645752.003
10 0 59225  65940.000000  0      -1126610.257      -2230660.825      -6507934.359
10 0 59225  66000.000000  0      -1459884.583      -2496852.307      -6342612.993
10 0 59225  66060.000000  0      -1789301.783      -2749664.248      -6150475.283
10 0 59225  66120.000000  0      -2113354.288      -2988070.647      -5932321.849
10 0 59225  66180.000000  0      -2430546.903      -3211117.864      -5689063.560
10 0 59225  66240.000000  0      -2739403.750      -3417928.620      -5421718.102
10 0 59225  66300.000000  0      -3038475.262      -3607705.670      -5131406.007
10 0 59225  66360.000000  0      -3326345.109      -3779735.064      -4819346.177
10 0 59225  66420.000000  0      -3601637.020      -3933389.019      -4486850.983
10 0 59225  66480.000000  0      -3863021.502      -4068128.392      -4135320.957
10 0 59225  66540.000000  0      -4109222.428      -4183504.763      -3766239.071
10 0 59225  66600.000000  0      -4339023.483      -4279162.086      -3381164.599
10 0 59225  66660.000000  0      -4551274.377      -4354837.904      -2981726.564
10 0 59225  66720.000000  0      -4744896.786      -4410364.085      -2569616.826
10 0 59225  66780.000000  0      -4918890.010      -4445667.096      -2146582.861
10 0 59225  66840.000000  0      -5072336.309      -4460767.810      -1714420.238
10 0 59225  66900.000000  0      -5204405.856      -4455780.856      -1274964.828
10 0 59225  66960.000000  0      -5314361.288      -4430913.487       -830084.792
10 0 59225  67020.000000  0      -5401561.864      -4386463.987       -381672.418
10 0 59225  67080.000000  0      -5465467.149      -4322819.643         68364.240
10 0 59225  67140.000000  0      -5505640.195      -4240454.253        518109.816
10 0 59225  67200.000000  0      -5521750.208      -4139925.188        965650.149
10 0 59225  67260.000000  0      -5513574.657      -4021870.005       1409080.793
10 0 59225  67320.000000  0      -5481000.835      -3887002.667       1846515.432
10 0 59225  67380.000000  0      -5424026.892      -3736109.402       2276094.184
10 0 59225  67440.000000  0      -5342762.299      -3570044.228       2695991.755
10 0 59225  67500.000000  0      -5237427.764      -3389724.192       3104425.394
10 0 59225  67560.000000  0      -5108354.623      -3196124.333       3499662.634
10 0 59225  67620.000000  0      -4955983.683      -2990272.380       3880028.801
10 0 59225  67680.000000  0      -4780863.474      -2773243.207       4243914.201
10 0 59225  67740.000000  0      -4583647.984      -2546153.130       4589780.887
10 0 59225  67800.000000  0      -4365093.945      -2310154.103       4916169.043
10 0 59225  67860.000000  0      -4126057.675      -2066427.831       5221703.000
10 0 59225  67920.000000  0      -3867491.475      -1816179.827       5505096.866
10 0 59225  67980.000000  0      -3590439.620      -1560633.438       5765159.787
10 0 59225  68040.000000  0      -3296033.886      -1301023.810       6000800.797
10 0 59225  68100.000000  0      -2985488.671      -1038591.876       6211033.172
10 0 59225  68160.000000  0      -2660095.741       -774578.382       6394978.312
10 0 59225  68220.000000  0      -2321218.642       -510217.991       6551869.089
10 0 59225  68280.000000  0      -1970286.809       -246733.558       6681052.699
10 0 59225  68340.000000  0      -1608789.470         14669.396       6781993.058
10 0 59225  68400.000000  0      -1238269.309        272808.100       6854272.804
10 0 59225  68460.000000  0       -860315.896        526527.820       6897594.829
10 0 59225  68520.000000  0       -476558.886        774706.946       6911783.331
10 0 59225  68580.000000  0        -88661.053       1016261.882       6896784.388
10 0 59225  68640.000000  0        301688.832       1250151.700       6852666.104
10 0 59225  68700.000000  0        692783.302       1475382.594       6779618.268
10 0 59225  68760.000000  0       1082903.581       1691012.056       6677951.489
10 0 59225  68820.000000  0       1470327.037       1896152.733       6548095.903
10 0 59225  68880.000000  0       1853334.680       2089976.031       6390599.439
10 0 59225  68940.000000  0       2230218.693       2271715.411       6206125.669
10 0 59225  69000.000000  0       2599289.998       2440669.435       5995451.226
10 0 59225  69060.000000  0       2958885.849       2596204.477       5759462.729
10 0 59225  69120.000000  0       3307377.346       2737757.109       5499153.240
10 0 59225  69180.000000  0       3643176.830       2864836.156       5215618.246
10 0 59225  69240.000000  0       3964745.113       2977024.413       4910051.238
10 0 59225  69300.000000  0       4270598.561       3073980.011       4583738.926
10 0 59225  69360.000000  0       4559316.030       3155437.373       4238056.085
10 0 59225  69420.000000  0       4829545.749       3221207.938       3874460.070
10 0 59225  69480.000000  0       5080011.993       3271180.496       3494484.597
10 0 59225  69540.000000  0       5309521.121       3305320.891       3099733.227
10 0 59225  69600.000000  0       5516967.356       3323671.538       2691872.784
10 0 59225  69660.000000  0       5701338.300       3326350.602       2272626.344
10 0 59225  69720.000000  0       5861720.047       3313550.770       1843765.924
10 0 59225  69780.000000  0       5997301.861       3285537.650       1407104.919
10 0 59225  69840.000000  0       6107380.390       3242647.803        964490.305
10 0 59225  69900.000000  0       6191363.353       3185286.397        517794.651
10 0 59225  69960.000000  0       6248772.678       3113924.527         68908.039
10 0 59225  70020.000000  0       6279247.156       3029096.212       -380270.101
10 0 59225  70080.000000  0       6282544.511       2931395.023       -827839.221
10 0 59225  70140.000000  0       6258542.846       2821470.479      -1271905.826
10 0 59225  70200.000000  0       6207241.596       2700024.282      -1710591.563
10 0 59225  70260.000000  0       6128761.959       2567806.304      -2142041.366
10 0 59225  70320.000000  0       6023346.664       2425610.259      -2564431.482
10 0 59225  70380.000000  0       5891359.152       2274269.208      -2975977.271
10 0 59225  70440.000000  0       5733282.224       2114650.917      -3374940.804
10 0 59225  70500.000000  0       5549716.139       1947653.080      -3759638.263
10 0 59225  70560.000000  0       5341376.137       1774198.411      -4128447.105
10 0 59225  70620.000000  0       5109089.344       1595229.656      -4479812.876
10 0 59225  70680.000000  0       4853791.207       1411704.611      -4812255.585
10 0 59225  70740.000000  0       4576521.530       1224591.144      -5124375.768
10 0 59225  70800.000000  0       4278420.045       1034862.212      -5414860.231
10 0 59225  70860.000000  0       3960721.544        843490.922      -5682487.377
10 0 59225  70920.000000  0       3624750.619        651445.646      -5926132.167
10 0 59225  70980.000000  0       3271915.935        459685.239      -6144770.653
10 0 59225  71040.000000  0       2903704.194        269154.363      -6337483.992
10 0 59225  71100.000000  0       2521673.849         80778.934      -6503462.086
10 0 59225  71160.000000  0       2127448.475       -104538.264      -6642006.762
10 0 59225  71220.000000  0       1722709.965       -285921.808      -6752534.516
10 0 59225  71280.000000  0       1309191.410       -462527.716      -6834578.935
10 0 59225  71340.000000  0        888669.632       -633547.315      -6887792.550
10 0 59225  71400.000000  0        462957.626       -798210.853      -6911948.135
10 0 59225  71460.000000  0         33896.898       -955790.907      -6906939.612
10 0 59225  71520.000000  0       -396650.330      -1105605.543      -6872782.550
10 0 59225  71580.000000  0       -826809.081      -1247021.245      -6809614.257
10 0 59225  71640.000000  0      -1254699.718      -1379455.598      -6717693.350
10 0 59225  71700.000000  0      -1678446.066      -1502379.702      -6597398.859
10 0 59225  71760.000000  0      -2096183.593      -1615320.311      -6449228.812
10 0 59225  71820.000000  0      -2506067.492      -1717861.641      -6273798.342
10 0 59225  71880.000000  0      -2906280.735      -1809646.928      -6071837.464
10 0 59225  71940.000000  0      -3295042.162      -1890379.730      -5844188.416
99
